start=new Date('2022-01-12T00:00:00.000Z').valueOf();
sats=[{"INCLINATION":"53.0564","MEAN_ELEMENT_THEORY":"SGP4","ARG_OF_PERICENTER":"82.0739","GP_ID":"193694100","MEAN_MOTION_DOT":"0.00043180","COUNTRY_CODE":"US","REF_FRAME":"TEME","ECCENTRICITY":"0.00013270","SEMIMAJOR_AXIS":"6925.449","TIME_SYSTEM":"UTC","OBJECT_NAME":"STARLINK-2627","PERIAPSIS":"546.395","APOAPSIS":"548.233","MEAN_MOTION":"15.06367348","RA_OF_ASC_NODE":"40.1569","OBJECT_ID":"2021-044BB","OBJECT_TYPE":"PAYLOAD","FILE":"3269987","MEAN_MOTION_DDOT":"0.0000000000000","DECAY_DATE":null,"TLE_LINE1":"1 48687U 21044BB  22011.91667824  .00043180  00000-0  29026-2 0  9990","RCS_SIZE":"LARGE","PERIOD":"95.594","EPHEMERIS_TYPE":"0","NORAD_CAT_ID":"48687","REV_AT_EPOCH":"357","EPOCH":"2022-01-11T22:00:00.999936","LAUNCH_DATE":"2021-05-26","BSTAR":"0.00290260000000","TLE_LINE2":"2 48687  53.0564  40.1569 0001327  82.0739 200.4451 15.06367348  3579","CLASSIFICATION_TYPE":"U","ELEMENT_SET_NO":"999","MEAN_ANOMALY":"200.4451","SITE":"AFETR","CENTER_NAME":"EARTH"},{"LAUNCH_DATE":"2021-05-26","EPOCH":"2022-01-11T22:00:00.999936","TLE_LINE2":"2 48688  53.0548  40.1525 0001341 101.4618 161.0577 15.06371443  3574","BSTAR":"0.00284130000000","SITE":"AFETR","CENTER_NAME":"EARTH","MEAN_ANOMALY":"161.0577","ELEMENT_SET_NO":"999","CLASSIFICATION_TYPE":"U","FILE":"3269987","OBJECT_TYPE":"PAYLOAD","OBJECT_ID":"2021-044BC","RCS_SIZE":"LARGE","TLE_LINE1":"1 48688U 21044BC  22011.91667824  .00042261  00000-0  28413-2 0  9999","MEAN_MOTION_DDOT":"0.0000000000000","DECAY_DATE":null,"REV_AT_EPOCH":"357","NORAD_CAT_ID":"48688","EPHEMERIS_TYPE":"0","PERIOD":"95.594","SEMIMAJOR_AXIS":"6925.436","OBJECT_NAME":"STARLINK-2742","PERIAPSIS":"546.372","TIME_SYSTEM":"UTC","MEAN_MOTION":"15.06371443","APOAPSIS":"548.230","RA_OF_ASC_NODE":"40.1525","ARG_OF_PERICENTER":"101.4618","MEAN_ELEMENT_THEORY":"SGP4","INCLINATION":"53.0548","GP_ID":"193695356","MEAN_MOTION_DOT":"0.00042261","COUNTRY_CODE":"US","ECCENTRICITY":"0.00013410","REF_FRAME":"TEME"},{"PERIOD":"95.645","EPHEMERIS_TYPE":"0","NORAD_CAT_ID":"48689","REV_AT_EPOCH":"358","MEAN_MOTION_DDOT":"0.0000000000000","DECAY_DATE":null,"TLE_LINE1":"1 48689U 21044BD  22011.91667824  .00036325  00000-0  25003-2 0  9996","RCS_SIZE":"LARGE","OBJECT_ID":"2021-044BD","OBJECT_TYPE":"PAYLOAD","FILE":"3269987","CLASSIFICATION_TYPE":"U","ELEMENT_SET_NO":"999","MEAN_ANOMALY":"70.4468","CENTER_NAME":"EARTH","SITE":"AFETR","BSTAR":"0.00250030000000","TLE_LINE2":"2 48689  53.0560  44.5920 0001343  80.5751  70.4468 15.05567911  3582","EPOCH":"2022-01-11T22:00:00.999936","LAUNCH_DATE":"2021-05-26","REF_FRAME":"TEME","ECCENTRICITY":"0.00013430","MEAN_MOTION_DOT":"0.00036325","COUNTRY_CODE":"US","GP_ID":"193695600","INCLINATION":"53.0560","MEAN_ELEMENT_THEORY":"SGP4","ARG_OF_PERICENTER":"80.5751","APOAPSIS":"550.695","MEAN_MOTION":"15.05567911","RA_OF_ASC_NODE":"44.5920","TIME_SYSTEM":"UTC","PERIAPSIS":"548.835","OBJECT_NAME":"STARLINK-2617","SEMIMAJOR_AXIS":"6927.900"},{"APOAPSIS":"548.123","MEAN_MOTION":"15.06369051","RA_OF_ASC_NODE":"55.1550","SEMIMAJOR_AXIS":"6925.443","PERIAPSIS":"546.494","OBJECT_NAME":"STARLINK-2740","TIME_SYSTEM":"UTC","COUNTRY_CODE":"US","MEAN_MOTION_DOT":"0.00025850","ECCENTRICITY":"0.00011760","REF_FRAME":"TEME","ARG_OF_PERICENTER":"89.2645","MEAN_ELEMENT_THEORY":"SGP4","INCLINATION":"53.0558","GP_ID":"193693856","CENTER_NAME":"EARTH","SITE":"AFETR","MEAN_ANOMALY":"110.7516","CLASSIFICATION_TYPE":"U","ELEMENT_SET_NO":"999","LAUNCH_DATE":"2021-05-26","EPOCH":"2022-01-11T22:00:00.999936","TLE_LINE2":"2 48690  53.0558  55.1550 0001176  89.2645 110.7516 15.06369051  3577","BSTAR":"0.00174940000000","RCS_SIZE":"LARGE","TLE_LINE1":"1 48690U 21044BE  22011.91667824  .00025850  00000-0  17494-2 0  9994","MEAN_MOTION_DDOT":"0.0000000000000","DECAY_DATE":null,"NORAD_CAT_ID":"48690","REV_AT_EPOCH":"357","EPHEMERIS_TYPE":"0","PERIOD":"95.594","FILE":"3269987","OBJECT_TYPE":"PAYLOAD","OBJECT_ID":"2021-044BE"},{"OBJECT_NAME":"STARLINK-2750","PERIAPSIS":"546.404","TIME_SYSTEM":"UTC","SEMIMAJOR_AXIS":"6925.418","APOAPSIS":"548.162","MEAN_MOTION":"15.06377391","RA_OF_ASC_NODE":"50.0969","GP_ID":"193694600","MEAN_ELEMENT_THEORY":"SGP4","ARG_OF_PERICENTER":"67.1207","INCLINATION":"53.0600","ECCENTRICITY":"0.00012690","REF_FRAME":"TEME","COUNTRY_CODE":"US","MEAN_MOTION_DOT":"0.00035426","BSTAR":"0.00238670000000","TLE_LINE2":"2 48691  53.0600  50.0969 0001269  67.1207 280.4057 15.06377391  3577","LAUNCH_DATE":"2021-05-26","EPOCH":"2022-01-11T22:00:00.999936","SITE":"AFETR","CENTER_NAME":"EARTH","CLASSIFICATION_TYPE":"U","ELEMENT_SET_NO":"999","MEAN_ANOMALY":"280.4057","FILE":"3269987","OBJECT_ID":"2021-044BF","OBJECT_TYPE":"PAYLOAD","EPHEMERIS_TYPE":"0","REV_AT_EPOCH":"357","NORAD_CAT_ID":"48691","PERIOD":"95.594","MEAN_MOTION_DDOT":"0.0000000000000","DECAY_DATE":null,"TLE_LINE1":"1 48691U 21044BF  22011.91667824  .00035426  00000-0  23867-2 0  9996","RCS_SIZE":"LARGE"},{"TLE_LINE2":"2 48692  53.0557  50.1569 0001173  93.9995  38.7006 15.06366119  3586","BSTAR":"0.00121070000000","EPOCH":"2022-01-11T22:00:00.999936","LAUNCH_DATE":"2021-05-26","MEAN_ANOMALY":"38.7006","ELEMENT_SET_NO":"999","CLASSIFICATION_TYPE":"U","CENTER_NAME":"EARTH","SITE":"AFETR","OBJECT_TYPE":"PAYLOAD","OBJECT_ID":"2021-044BG","FILE":"3269987","PERIOD":"95.594","NORAD_CAT_ID":"48692","REV_AT_EPOCH":"358","EPHEMERIS_TYPE":"0","TLE_LINE1":"1 48692U 21044BG  22011.91667824  .00017781  00000-0  12107-2 0  9996","RCS_SIZE":"LARGE","DECAY_DATE":null,"MEAN_MOTION_DDOT":"0.0000000000000","TIME_SYSTEM":"UTC","PERIAPSIS":"546.505","OBJECT_NAME":"STARLINK-2752","SEMIMAJOR_AXIS":"6925.452","APOAPSIS":"548.130","MEAN_MOTION":"15.06366119","RA_OF_ASC_NODE":"50.1569","GP_ID":"193694857","INCLINATION":"53.0557","ARG_OF_PERICENTER":"93.9995","MEAN_ELEMENT_THEORY":"SGP4","REF_FRAME":"TEME","ECCENTRICITY":"0.00011730","MEAN_MOTION_DOT":"0.00017781","COUNTRY_CODE":"US"},{"PERIAPSIS":"546.450","OBJECT_NAME":"STARLINK-2618","TIME_SYSTEM":"UTC","SEMIMAJOR_AXIS":"6925.425","APOAPSIS":"548.131","RA_OF_ASC_NODE":"55.1550","MEAN_MOTION":"15.06374902","GP_ID":"193695101","ARG_OF_PERICENTER":"76.4222","MEAN_ELEMENT_THEORY":"SGP4","INCLINATION":"53.0559","ECCENTRICITY":"0.00012130","REF_FRAME":"TEME","COUNTRY_CODE":"US","MEAN_MOTION_DOT":"0.00028151","TLE_LINE2":"2 48693  53.0559  55.1550 0001213  76.4222 308.7160 15.06374902  3588","BSTAR":"0.00190250000000","LAUNCH_DATE":"2021-05-26","EPOCH":"2022-01-11T22:00:00.999936","CENTER_NAME":"EARTH","SITE":"AFETR","MEAN_ANOMALY":"308.7160","CLASSIFICATION_TYPE":"U","ELEMENT_SET_NO":"999","FILE":"3269987","OBJECT_TYPE":"PAYLOAD","OBJECT_ID":"2021-044BH","REV_AT_EPOCH":"358","NORAD_CAT_ID":"48693","EPHEMERIS_TYPE":"0","PERIOD":"95.594","TLE_LINE1":"1 48693U 21044BH  22011.91667824  .00028151  00000-0  19025-2 0  9996","RCS_SIZE":"LARGE","MEAN_MOTION_DDOT":"0.0000000000000","DECAY_DATE":null},{"COUNTRY_CODE":"US","MEAN_MOTION_DOT":"0.00019491","ECCENTRICITY":"0.00014270","REF_FRAME":"TEME","ARG_OF_PERICENTER":"69.3488","MEAN_ELEMENT_THEORY":"SGP4","INCLINATION":"53.0555","GP_ID":"193694356","MEAN_MOTION":"15.06370686","APOAPSIS":"548.292","RA_OF_ASC_NODE":"60.1592","SEMIMAJOR_AXIS":"6925.438","PERIAPSIS":"546.315","OBJECT_NAME":"STARLINK-2748","TIME_SYSTEM":"UTC","TLE_LINE1":"1 48694U 21044BJ  22011.91667824  .00019491  00000-0  13248-2 0  9995","RCS_SIZE":"LARGE","DECAY_DATE":null,"MEAN_MOTION_DDOT":"0.0000000000000","NORAD_CAT_ID":"48694","REV_AT_EPOCH":"358","EPHEMERIS_TYPE":"0","PERIOD":"95.594","FILE":"3269987","OBJECT_TYPE":"PAYLOAD","OBJECT_ID":"2021-044BJ","CENTER_NAME":"EARTH","SITE":"AFETR","MEAN_ANOMALY":"123.1693","ELEMENT_SET_NO":"999","CLASSIFICATION_TYPE":"U","LAUNCH_DATE":"2021-05-26","EPOCH":"2022-01-11T22:00:00.999936","TLE_LINE2":"2 48694  53.0555  60.1592 0001427  69.3488 123.1693 15.06370686  3584","BSTAR":"0.00132480000000"},{"SEMIMAJOR_AXIS":"6925.402","PERIAPSIS":"546.445","OBJECT_NAME":"STARLINK-2616","TIME_SYSTEM":"UTC","MEAN_MOTION":"15.06382593","APOAPSIS":"548.089","RA_OF_ASC_NODE":"60.1575","ARG_OF_PERICENTER":"84.2307","MEAN_ELEMENT_THEORY":"SGP4","INCLINATION":"53.0552","GP_ID":"193694101","COUNTRY_CODE":"US","MEAN_MOTION_DOT":"0.00019284","ECCENTRICITY":"0.00011870","REF_FRAME":"TEME","LAUNCH_DATE":"2021-05-26","EPOCH":"2022-01-11T22:00:00.999936","TLE_LINE2":"2 48695  53.0552  60.1575 0001187  84.2307  13.4308 15.06382593  3586","BSTAR":"0.00131060000000","SITE":"AFETR","CENTER_NAME":"EARTH","MEAN_ANOMALY":"13.4308","ELEMENT_SET_NO":"999","CLASSIFICATION_TYPE":"U","FILE":"3269987","OBJECT_TYPE":"PAYLOAD","OBJECT_ID":"2021-044BK","RCS_SIZE":"LARGE","TLE_LINE1":"1 48695U 21044BK  22011.91667824  .00019284  00000-0  13106-2 0  9999","DECAY_DATE":null,"MEAN_MOTION_DDOT":"0.0000000000000","NORAD_CAT_ID":"48695","REV_AT_EPOCH":"358","EPHEMERIS_TYPE":"0","PERIOD":"95.593"},{"DECAY_DATE":null,"MEAN_MOTION_DDOT":"0.0000000000000","TLE_LINE1":"1 48696U 21044BL  22011.62363824 -.00001129  00000-0 -56909-4 0  9992","RCS_SIZE":"LARGE","EPHEMERIS_TYPE":"0","NORAD_CAT_ID":"48696","REV_AT_EPOCH":"3532","PERIOD":"95.592","FILE":"3269987","OBJECT_ID":"2021-044BL","OBJECT_TYPE":"PAYLOAD","CENTER_NAME":"EARTH","SITE":"AFETR","ELEMENT_SET_NO":"999","CLASSIFICATION_TYPE":"U","MEAN_ANOMALY":"275.5669","LAUNCH_DATE":"2021-05-26","EPOCH":"2022-01-11T14:58:02.343936","BSTAR":"-0.00005690900000","TLE_LINE2":"2 48696  53.0587  66.4836 0001086  84.5444 275.5669 15.06400594 35327","MEAN_MOTION_DOT":"-0.00001129","COUNTRY_CODE":"US","ECCENTRICITY":"0.00010860","REF_FRAME":"TEME","MEAN_ELEMENT_THEORY":"SGP4","ARG_OF_PERICENTER":"84.5444","INCLINATION":"53.0587","GP_ID":"193695357","RA_OF_ASC_NODE":"66.4836","APOAPSIS":"547.964","MEAN_MOTION":"15.06400594","SEMIMAJOR_AXIS":"6925.347","OBJECT_NAME":"STARLINK-2753","PERIAPSIS":"546.460","TIME_SYSTEM":"UTC"}];
